NORAD_CAT_ID,OBJECT_NAME,OBJECT_TYPE,EPOCH,MEAN_MOTION,ECCENTRICITY,INCLINATION,RA_OF_ASC_NODE,ARG_OF_PERICENTER,MEAN_ANOMALY,BSTAR,MEAN_MOTION_DOT,MEAN_MOTION_DDOT,TLE_LINE0,TLE_LINE1,TLE_LINE2,SEMIMAJOR_AXIS,PERIOD,APOGEE,PERIGEE,DECAYED
51995.0,STARLINK-3636,PAYLOAD,2023-03-15 10:20:12,15.08849326,0.0001284,53.215,233.4856,60.9883,299.1238,0.00025977,3.85e-05,0.0,0 STARLINK-3636,1 51995U 22025AR  23074.43070481  .00003850  00000-0  25977-3 0  9992,2 51995  53.2150 233.4856 0001284  60.9883 299.1238 15.08849326 56312,6917.852,95.437,540.605,538.829,0.0
51995.0,STARLINK-3636,PAYLOAD,2023-03-15 19:52:31,15.08862589,0.0001344,53.2145,231.6978,92.2552,267.8594,0.00038237,5.806e-05,0.0,0 STARLINK-3636,1 51995U 22025AR  23074.82813722  .00005806  00000-0  38237-3 0  9994,2 51995  53.2145 231.6978 0001344  92.2552 267.8594 15.08862589 56378,6917.811,95.436,540.606,538.747,0.0
51995.0,STARLINK-3636,PAYLOAD,2023-03-16 11:46:23,15.08822343,0.0001274,53.215,228.725,100.598,259.5156,-0.00037538,-6.254e-05,0.0,0 STARLINK-3636,1 51995U 22025AR  23075.49054928 -.00006254  00000-0 -37538-3 0  9996,2 51995  53.2150 228.7250 0001274 100.5980 259.5156 15.08822343 57999,6917.934,95.439,540.681,538.918,0.0
51995.0,STARLINK-3636,PAYLOAD,2023-03-16 16:32:33,15.08824119,0.0001285,53.2152,227.8329,102.3451,257.7685,-0.0001455,-2.602e-05,0.0,0 STARLINK-3636,1 51995U 22025AR  23075.68927150 -.00002602  00000-0 -14550-3 0  9995,2 51995  53.2152 227.8329 0001285 102.3451 257.7685 15.08824119 56509,6917.929,95.439,540.683,538.905,0.0
51995.0,STARLINK-3636,PAYLOAD,2023-03-17 10:01:47,15.08833331,0.0001403,53.215,224.5625,100.9116,259.2034,0.00020486,2.973e-05,0.0,0 STARLINK-3636,1 51995U 22025AR  23076.41791631  .00002973  00000-0  20486-3 0  9994,2 51995  53.2150 224.5625 0001403 100.9116 259.2034 15.08833331 58136,6917.901,95.438,540.736,538.795,0.0
51995.0,STARLINK-3636,PAYLOAD,2023-03-17 13:12:34,15.08837506,0.0001353,53.2153,223.9675,102.8987,257.2156,0.00022733,3.332e-05,0.0,0 STARLINK-3636,1 51995U 22025AR  23076.55039518  .00003332  00000-0  22733-3 0  9995,2 51995  53.2153 223.9675 0001353 102.8987 257.2156 15.08837506 56632,6917.888,95.438,540.689,538.817,0.0
51995.0,STARLINK-3636,PAYLOAD,2023-03-17 19:34:06,15.08849843,0.0001328,53.2152,222.778,98.63,261.4843,0.00063858,9.892e-05,0.0,0 STARLINK-3636,1 51995U 22025AR  23076.81535374  .00009892  00000-0  63858-3 0  9995,2 51995  53.2152 222.7780 0001328  98.6300 261.4843 15.08849843 58198,6917.85,95.437,540.634,538.797,0.0
51995.0,STARLINK-3636,PAYLOAD,2023-03-18 16:14:06,15.08863426,0.0001059,53.2155,218.9123,92.0878,268.0235,0.00074053,0.00011525,0.0,0 STARLINK-3636,1 51995U 22025AR  23077.67646931  .00011525  00000-0  74053-3 0  9997,2 51995  53.2155 218.9123 0001059  92.0878 268.0235 15.08863426 58324,6917.809,95.436,540.406,538.941,0.0
51995.0,STARLINK-3636,PAYLOAD,2023-03-19 01:46:25,15.08859048,0.0001068,53.2153,217.128,88.7913,271.3202,0.00053116,8.18e-05,0.0,0 STARLINK-3636,1 51995U 22025AR  23078.07390499  .00008180  00000-0  53116-3 0  9997,2 51995  53.2153 217.1280 0001068  88.7913 271.3202 15.08859048 58381,6917.822,95.436,540.426,538.948,0.0
51995.0,STARLINK-3636,PAYLOAD,2023-03-19 12:54:07,15.08845047,0.0001159,53.2158,215.0468,75.2846,284.8274,0.00062284,9.64e-05,0.0,0 STARLINK-3636,1 51995U 22025AR  23078.53758939  .00009640  00000-0  62284-3 0  9993,2 51995  53.2158 215.0468 0001159  75.2846 284.8274 15.08845047 56939,6917.865,95.437,540.532,538.928,0.0
51995.0,STARLINK-3636,PAYLOAD,2023-03-19 16:04:53,15.08850533,0.0001105,53.2158,214.4524,70.6351,289.476,0.00090268,0.00014111,0.0,0 STARLINK-3636,1 51995U 22025AR  23078.67006868  .00014111  00000-0  90268-3 0  9997,2 51995  53.2158 214.4524 0001105  70.6351 289.4760 15.08850533 58474,6917.848,95.437,540.478,538.949,0.0
51995.0,STARLINK-3636,PAYLOAD,2023-03-20 01:37:13,15.08843812,0.0001084,53.216,212.6681,57.1039,303.0057,0.00088801,0.00013874,0.0,0 STARLINK-3636,1 51995U 22025AR  23079.06751197  .00013874  00000-0  88801-3 0  9998,2 51995  53.2160 212.6681 0001084  57.1039 303.0057 15.08843812 58531,6917.869,95.437,540.484,538.984,0.0
51995.0,STARLINK-3636,PAYLOAD,2023-03-20 12:44:55,15.08845102,0.0001045,53.2164,210.5857,71.0813,289.0292,0.00068433,0.00010621,0.0,0 STARLINK-3636,1 51995U 22025AR  23079.53119289  .00010621  00000-0  68433-3 0  9996,2 51995  53.2164 210.5857 0001045  71.0813 289.0292 15.08845102 58605,6917.865,95.437,540.453,539.007,0.0
51995.0,STARLINK-3636,PAYLOAD,2023-03-20 15:55:41,15.08849113,9.14e-05,53.2154,209.9932,86.4251,273.6846,0.00055143,8.501e-05,0.0,0 STARLINK-3636,1 51995U 22025AR  23079.66367044  .00008501  00000-0  55143-3 0  9992,2 51995  53.2154 209.9932 0000914  86.4251 273.6846 15.08849113 57104,6917.853,95.437,540.35,539.085,0.0
51995.0,STARLINK-3636,PAYLOAD,2023-03-21 12:35:42,15.08837436,0.0001003,53.2157,206.1276,90.0393,270.0714,3.2708e-06,-2.36e-06,0.0,0 STARLINK-3636,1 51995U 22025AR  23080.52479295 -.00000236  00000-0  32708-5 0  9993,2 51995  53.2157 206.1276 0001003  90.0393 270.0714 15.08837436 58757,6917.888,95.438,540.447,539.059,0.0
51995.0,STARLINK-3636,PAYLOAD,2023-03-22 15:37:14,15.08857387,0.0001075,53.2151,201.0739,103.5297,256.5815,0.0002561,3.792e-05,0.0,0 STARLINK-3636,1 51995U 22025AR  23081.65086376  .00003792  00000-0  25610-3 0  9993,2 51995  53.2151 201.0739 0001075 103.5297 256.5815 15.08857387 58928,6917.827,95.436,540.436,538.949,0.0
51995.0,STARLINK-3636,PAYLOAD,2023-03-23 12:17:16,15.08841844,0.0001253,53.2153,197.2079,120.2727,239.8389,0.00011901,1.607e-05,0.0,0 STARLINK-3636,1 51995U 22025AR  23082.51199125  .00001607  00000-0  11901-3 0  9997,2 51995  53.2153 197.2079 0001253 120.2727 239.8389 15.08841844 59051,6917.875,95.437,540.607,538.873,0.0
51995.0,STARLINK-3636,PAYLOAD,2023-03-23 13:52:39,15.08843875,0.0001236,53.2166,196.9079,84.3764,275.7369,7.1195e-05,8.45e-06,0.0,0 STARLINK-3636,1 51995U 22025AR  23082.57823177  .00000845  00000-0  71195-4 0  9999,2 51995  53.2166 196.9079 0001236  84.3764 275.7369 15.08843875 57548,6917.869,95.437,540.589,538.878,0.0
51995.0,STARLINK-3636,PAYLOAD,2023-03-24 12:08:01,15.08900727,0.0001193,53.2174,192.7457,88.688,271.4249,0.001601,0.00025326,0.0,0 STARLINK-3636,1 51995U 22025AR  23083.50556740  .00025326  00000-0  16010-2 0  9996,2 51995  53.2174 192.7457 0001193  88.6880 271.4249 15.08900727 59204,6917.695,95.434,540.385,538.734,0.0
51995.0,STARLINK-3636,PAYLOAD,2023-03-24 13:43:23,15.08909063,0.0001259,53.2179,192.4451,95.5951,264.5185,0.0013853,0.0002187,0.0,0 STARLINK-3636,1 51995U 22025AR  23083.57179802  .00021870  00000-0  13853-2 0  9995,2 51995  53.2179 192.4451 0001259  95.5951 264.5185 15.08909063 57694,6917.669,95.433,540.405,538.663,0.0
51995.0,STARLINK-3636,PAYLOAD,2023-03-25 11:58:51,15.08754681,0.0001214,53.2167,188.2897,77.5969,282.5159,-0.0021368,-0.00034055,0.0,0 STARLINK-3636,1 51995U 22025AR  23084.49920335 -.00034055  00000-0 -21368-2 0  9993,2 51995  53.2167 188.2897 0001214  77.5969 282.5159 15.08754681 59358,6918.141,95.443,540.846,539.166,0.0
51995.0,STARLINK-3636,PAYLOAD,2023-03-25 13:34:14,15.08748072,0.0001304,53.2175,187.9878,98.5196,261.5944,-0.0024204,-0.00038506,0.0,0 STARLINK-3636,1 51995U 22025AR  23084.56544100 -.00038506  00000-0 -24204-2 0  9990,2 51995  53.2175 187.9878 0001304  98.5196 261.5944 15.08748072 57845,6918.161,95.443,540.929,539.124,0.0
51995.0,STARLINK-3636,PAYLOAD,2023-03-26 11:49:39,15.08832953,0.0001802,53.217,183.8259,65.9346,294.1834,0.0019874,0.00031477,0.0,0 STARLINK-3636,1 51995U 22025AR  23085.49281752  .00031477  00000-0  19874-2 0  9999,2 51995  53.2170 183.8259 0001802  65.9346 294.1834 15.08832953 59503,6917.902,95.438,541.014,538.52,0.0
51995.0,STARLINK-3636,PAYLOAD,2023-03-26 22:57:21,15.0884334,0.0001932,53.2156,181.7436,59.5293,300.5889,0.0011643,0.00018292,0.0,0 STARLINK-3636,1 51995U 22025AR  23085.95649334  .00018292  00000-0  11643-2 0  9990,2 51995  53.2156 181.7436 0001932  59.5293 300.5889 15.08843340 59576,6917.87,95.437,541.072,538.399,0.0
51995.0,STARLINK-3636,PAYLOAD,2023-03-27 10:05:03,15.08837176,0.0001277,53.2166,179.6608,83.0712,277.0426,0.00096212,0.00015056,0.0,0 STARLINK-3636,1 51995U 22025AR  23086.42018258  .00015056  00000-0  96212-3 0  9999,2 51995  53.2166 179.6608 0001277  83.0712 277.0426 15.08837176 59647,6917.889,95.438,540.637,538.871,0.0
51995.0,STARLINK-3636,PAYLOAD,2023-03-27 11:40:25,15.08847483,0.0001356,53.2152,179.366,81.8872,278.2273,0.00064702,0.00010026,0.0,0 STARLINK-3636,1 51995U 22025AR  23086.48641011  .00010026  00000-0  64702-3 0  9995,2 51995  53.2152 179.3660 0001356  81.8872 278.2273 15.08847483 58136,6917.858,95.437,540.661,538.784,0.0
51995.0,STARLINK-3636,PAYLOAD,2023-03-28 09:55:48,15.08850289,0.0001579,53.2166,175.2026,96.0355,264.0817,-0.00014519,-2.599e-05,0.0,0 STARLINK-3636,1 51995U 22025AR  23087.41376080 -.00002599  00000-0 -14519-3 0  9999,2 51995  53.2166 175.2026 0001579  96.0355 264.0817 15.08850289 59791,6917.849,95.437,540.806,538.622,0.0
51995.0,STARLINK-3636,PAYLOAD,2023-03-28 13:06:36,15.08837432,0.0001555,53.2173,174.6087,89.2593,270.8577,0.00071687,0.00011139,0.0,0 STARLINK-3636,1 51995U 22025AR  23087.54625010  .00011139  00000-0  71687-3 0  9990,2 51995  53.2173 174.6087 0001555  89.2593 270.8577 15.08837432 58298,6917.888,95.438,540.829,538.678,0.0
51995.0,STARLINK-3636,PAYLOAD,2023-03-29 00:14:16,15.08852155,0.0001291,53.2156,172.5251,98.3019,261.8119,0.00019404,2.803e-05,0.0,0 STARLINK-3636,1 51995U 22025AR  23088.00991815  .00002803  00000-0  19404-3 0  9998,2 51995  53.2156 172.5251 0001291  98.3019 261.8119 15.08852155 59887,6917.843,95.437,540.601,538.815,0.0
51995.0,STARLINK-3636,PAYLOAD,2023-03-29 09:46:35,15.08843445,0.0001068,53.2156,170.741,100.8189,259.2923,5.5811e-05,6.01e-06,0.0,0 STARLINK-3636,1 51995U 22025AR  23088.40735937  .00000601  00000-0  55811-4 0  9990,2 51995  53.2156 170.7410 0001068 100.8189 259.2923 15.08843445 59946,6917.87,95.437,540.474,538.996,0.0
